[
    {
        "Altitude(m)": 559716.1234322137,
        "Argument of Periapsis(deg)": 0.006622991110713501,
        "Eccentricity": 0.0,
        "Inclination(deg)": 53.0,
        "Latitude(deg)": -22.42041592593182,
        "Longitude(deg)": 137.23844897854443,
        "Mean Anomaly(deg)": 208.27339286757757,
        "RAAN(deg)": 39.99014336852801,
        "Satellite Name": "Starlink Shell 1 188",
        "Satellite Number": 188,
        "Semi-Major Axis(m)": 6931778.249405717,
        "Time(s)": 190
    },
    {
        "Altitude(m)": 559880.7530490599,
        "Argument of Periapsis(deg)": 0.0069715695902247375,
        "Eccentricity": 0.0,
        "Inclination(deg)": 53.0,
        "Latitude(deg)": -22.89775135223457,
        "Longitude(deg)": 137.638436924187,
        "Mean Anomaly(deg)": 208.9002240711343,
        "RAAN(deg)": 39.98962459845054,
        "Satellite Name": "Starlink Shell 1 188",
        "Satellite Number": 188,
        "Semi-Major Axis(m)": 6931778.249405717,
        "Time(s)": 200
    },
    {
        "Altitude(m)": 560046.5037849812,
        "Argument of Periapsis(deg)": 0.007320148069735974,
        "Eccentricity": 0.0,
        "Inclination(deg)": 53.0,
        "Latitude(deg)": -23.373810315610275,
        "Longitude(deg)": 138.04150333373946,
        "Mean Anomaly(deg)": 209.527055274691,
        "RAAN(deg)": 39.98910582837307,
        "Satellite Name": "Starlink Shell 1 188",
        "Satellite Number": 188,
        "Semi-Major Axis(m)": 6931778.249405717,
        "Time(s)": 210
    },
    {
        "Altitude(m)": 560213.3164220873,
        "Argument of Periapsis(deg)": 0.007668726549247212,
        "Eccentricity": 0.0,
        "Inclination(deg)": 53.0,
        "Latitude(deg)": -23.848555089129714,
        "Longitude(deg)": 138.44773362135325,
        "Mean Anomaly(deg)": 210.1538864782477,
        "RAAN(deg)": 39.98858705829559,
        "Satellite Name": "Starlink Shell 1 188",
        "Satellite Number": 188,
        "Semi-Major Axis(m)": 6931778.249405717,
        "Time(s)": 220
    },
    {
        "Altitude(m)": 560381.1311199614,
        "Argument of Periapsis(deg)": 0.00801730502875845,
        "Eccentricity": 0.0,
        "Inclination(deg)": 53.0,
        "Latitude(deg)": -24.321947196755197,
        "Longitude(deg)": 138.8572143927559,
        "Mean Anomaly(deg)": 210.78071768180445,
        "RAAN(deg)": 39.98806828821812,
        "Satellite Name": "Starlink Shell 1 188",
        "Satellite Number": 188,
        "Semi-Major Axis(m)": 6931778.249405717,
        "Time(s)": 230
    },
    {
        "Altitude(m)": 560549.8874424611,
        "Argument of Periapsis(deg)": 0.008365883508269684,
        "Eccentricity": 0.0,
        "Inclination(deg)": 53.0,
        "Latitude(deg)": -24.793947388578722,
        "Longitude(deg)": 139.2700339678648,
        "Mean Anomaly(deg)": 211.40754888536108,
        "RAAN(deg)": 39.98754951814065,
        "Satellite Name": "Starlink Shell 1 188",
        "Satellite Number": 188,
        "Semi-Major Axis(m)": 6931778.249405717,
        "Time(s)": 240
    },
    {
        "Altitude(m)": 560719.5243847887,
        "Argument of Periapsis(deg)": 0.008714461987780921,
        "Eccentricity": 0.0,
        "Inclination(deg)": 53.0,
        "Latitude(deg)": -25.26451561554019,
        "Longitude(deg)": 139.68628138927897,
        "Mean Anomaly(deg)": 212.03438008891789,
        "RAAN(deg)": 39.98703074806318,
        "Satellite Name": "Starlink Shell 1 188",
        "Satellite Number": 188,
        "Semi-Major Axis(m)": 6931778.249405717,
        "Time(s)": 250
    },
    {
        "Altitude(m)": 560889.9804008309,
        "Argument of Periapsis(deg)": 0.009063040467292158,
        "Eccentricity": 0.0,
        "Inclination(deg)": 53.0,
        "Latitude(deg)": -25.73361100362781,
        "Longitude(deg)": 140.10604694226046,
        "Mean Anomaly(deg)": 212.6612112924746,
        "RAAN(deg)": 39.98651197798571,
        "Satellite Name": "Starlink Shell 1 188",
        "Satellite Number": 188,
        "Semi-Major Axis(m)": 6931778.249405717,
        "Time(s)": 260
    },
    {
        "Altitude(m)": 561061.1934307527,
        "Argument of Periapsis(deg)": 0.009411618946803396,
        "Eccentricity": 0.0,
        "Inclination(deg)": 53.0,
        "Latitude(deg)": -26.201191827560734,
        "Longitude(deg)": 140.52942267318926,
        "Mean Anomaly(deg)": 213.28804249603127,
        "RAAN(deg)": 39.98599320790824,
        "Satellite Name": "Starlink Shell 1 188",
        "Satellite Number": 188,
        "Semi-Major Axis(m)": 6931778.249405717,
        "Time(s)": 270
    },
    {
        "Altitude(m)": 561233.1009288148,
        "Argument of Periapsis(deg)": 0.009760197426314633,
        "Eccentricity": 0.0,
        "Inclination(deg)": 53.0,
        "Latitude(deg)": -26.667215483952717,
        "Longitude(deg)": 140.9565013934648,
        "Mean Anomaly(deg)": 213.91487369958804,
        "RAAN(deg)": 39.98547443783076,
        "Satellite Name": "Starlink Shell 1 188",
        "Satellite Number": 188,
        "Semi-Major Axis(m)": 6931778.249405717,
        "Time(s)": 280
    },
    {
        "Altitude(m)": 561405.6398914426,
        "Argument of Periapsis(deg)": 0.01010877590582587,
        "Eccentricity": 0.0,
        "Inclination(deg)": 53.0,
        "Latitude(deg)": -27.131638463964713,
        "Longitude(deg)": 141.38737719443094,
        "Mean Anomaly(deg)": 214.54170490314468,
        "RAAN(deg)": 39.98495566775329,
        "Satellite Name": "Starlink Shell 1 188",
        "Satellite Number": 188,
        "Semi-Major Axis(m)": 6931778.249405717,
        "Time(s)": 290
    },
    {
        "Altitude(m)": 561578.7468854692,
        "Argument of Periapsis(deg)": 0.010457354385337106,
        "Eccentricity": 0.0,
        "Inclination(deg)": 53.0,
        "Latitude(deg)": -27.59441632545298,
        "Longitude(deg)": 141.822145960277,
        "Mean Anomaly(deg)": 215.1685361067014,
        "RAAN(deg)": 39.98443689767581,
        "Satellite Name": "Starlink Shell 1 188",
        "Satellite Number": 188,
        "Semi-Major Axis(m)": 6931778.249405717,
        "Time(s)": 300
    },
    {
        "Altitude(m)": 561752.3580766033,
        "Argument of Periapsis(deg)": 0.010805932864848343,
        "Eccentricity": 0.0,
        "Inclination(deg)": 53.0,
        "Latitude(deg)": -28.0555036646166,
        "Longitude(deg)": 142.26090436584892,
        "Mean Anomaly(deg)": 215.79536731025823,
        "RAAN(deg)": 39.983918127598336,
        "Satellite Name": "Starlink Shell 1 188",
        "Satellite Number": 188,
        "Semi-Major Axis(m)": 6931778.249405717,
        "Time(s)": 310
    },
    {
        "Altitude(m)": 561926.4092580659,
        "Argument of Periapsis(deg)": 0.01115451134435958,
        "Eccentricity": 0.0,
        "Inclination(deg)": 53.0,
        "Latitude(deg)": -28.514854087161577,
        "Longitude(deg)": 142.7037503849127,
        "Mean Anomaly(deg)": 216.42219851381483,
        "RAAN(deg)": 39.98339935752087,
        "Satellite Name": "Starlink Shell 1 188",
        "Satellite Number": 188,
        "Semi-Major Axis(m)": 6931778.249405717,
        "Time(s)": 320
    },
    {
        "Altitude(m)": 562100.8358793828,
        "Argument of Periapsis(deg)": 0.011503089823870818,
        "Eccentricity": 0.0,
        "Inclination(deg)": 53.0,
        "Latitude(deg)": -28.972420178994113,
        "Longitude(deg)": 143.15078379577946,
        "Mean Anomaly(deg)": 217.04902971737155,
        "RAAN(deg)": 39.9828805874434,
        "Satellite Name": "Starlink Shell 1 188",
        "Satellite Number": 188,
        "Semi-Major Axis(m)": 6931778.249405717,
        "Time(s)": 330
    },
    {
        "Altitude(m)": 562275.5730753628,
        "Argument of Periapsis(deg)": 0.011851668303382053,
        "Eccentricity": 0.0,
        "Inclination(deg)": 53.0,
        "Latitude(deg)": -29.428153476456046,
        "Longitude(deg)": 143.60210517118637,
        "Mean Anomaly(deg)": 217.67586092092827,
        "RAAN(deg)": 39.98236181736592,
        "Satellite Name": "Starlink Shell 1 188",
        "Satellite Number": 188,
        "Semi-Major Axis(m)": 6931778.249405717,
        "Time(s)": 340
    },
    {
        "Altitude(m)": 562450.5556951745,
        "Argument of Periapsis(deg)": 0.012200246782893292,
        "Eccentricity": 0.0,
        "Inclination(deg)": 53.0,
        "Latitude(deg)": -29.882004436129787,
        "Longitude(deg)": 144.0578163779309,
        "Mean Anomaly(deg)": 218.30269212448502,
        "RAAN(deg)": 39.98184304728845,
        "Satellite Name": "Starlink Shell 1 188",
        "Satellite Number": 188,
        "Semi-Major Axis(m)": 6931778.249405717,
        "Time(s)": 350
    },
    {
        "Altitude(m)": 562625.7183315823,
        "Argument of Periapsis(deg)": 0.012548825262404526,
        "Eccentricity": 0.0,
        "Inclination(deg)": 53.0,
        "Latitude(deg)": -30.33392240423427,
        "Longitude(deg)": 144.5180210731225,
        "Mean Anomaly(deg)": 218.92952332804174,
        "RAAN(deg)": 39.98132427721097,
        "Satellite Name": "Starlink Shell 1 188",
        "Satellite Number": 188,
        "Semi-Major Axis(m)": 6931778.249405717,
        "Time(s)": 360
    },
    {
        "Altitude(m)": 562800.995350266,
        "Argument of Periapsis(deg)": 0.012897403741915765,
        "Eccentricity": 0.0,
        "Inclination(deg)": 53.0,
        "Latitude(deg)": -30.783855585638086,
        "Longitude(deg)": 144.98282368389786,
        "Mean Anomaly(deg)": 219.55635453159843,
        "RAAN(deg)": 39.9808055071335,
        "Satellite Name": "Starlink Shell 1 188",
        "Satellite Number": 188,
        "Semi-Major Axis(m)": 6931778.249405717,
        "Time(s)": 370
    }
]